{
    "CCSDS_OMM_VERS": "3.0",
    "COMMENT": "GENERATED VIA SPACE-TRACK.ORG API",
    "CREATION_DATE": "2025-11-23T21:08:43",
    "ORIGINATOR": "18 SPCS",
    "OBJECT_NAME": "GALILEO 11 (268)",
    "OBJECT_ID": "2015-079B",
    "CENTER_NAME": "EARTH",
    "REF_FRAME": "TEME",
    "TIME_SYSTEM": "UTC",
    "MEAN_ELEMENT_THEORY": "SGP4",
    "EPOCH": "2025-11-21T00:31:15.859776",
    "MEAN_MOTION": "1.70474234",
    "ECCENTRICITY": "0.00019561",
    "INCLINATION": "55.6986",
    "RA_OF_ASC_NODE": "106.9742",
    "ARG_OF_PERICENTER": "13.3898",
    "MEAN_ANOMALY": "346.5776",
    "EPHEMERIS_TYPE": "0",
    "CLASSIFICATION_TYPE": "U",
    "NORAD_CAT_ID": "41175",
    "ELEMENT_SET_NO": "999",
    "REV_AT_EPOCH": "6164",
    "BSTAR": "0.00000000000000",
    "MEAN_MOTION_DOT": "0.00000031",
    "MEAN_MOTION_DDOT": "0.0000000000000",
    "SEMIMAJOR_AXIS": "29600.293",
    "PERIOD": "844.702",
    "APOAPSIS": "23227.948",
    "PERIAPSIS": "23216.368",
    "OBJECT_TYPE": "PAYLOAD",
    "RCS_SIZE": "LARGE",
    "COUNTRY_CODE": "ESA",
    "LAUNCH_DATE": "2015-12-17",
    "SITE": "FRGUI",
    "DECAY_DATE": null,
    "FILE": "4896238",
    "GP_ID": "303332979",
    "TLE_LINE0": "0 GALILEO 11 (268)",
    "TLE_LINE1": "1 41175U 15079B   25325.02171134  .00000031  00000-0  00000-0 0  9990",
    "TLE_LINE2": "2 41175  55.6986 106.9742 0001956  13.3898 346.5776  1.70474234 61648"
}